#dV2023  1 15 22  0  0.00000000    1682       CTS   FIT  GFZ
## 2245  79200.00000000    30.00000000 59959 0.9166666666667
+    1   L65  0  0  0  0  0  0  0  0  0  0  0  0  0  0  0  0
+          0  0  0  0  0  0  0  0  0  0  0  0  0  0  0  0  0
+          0  0  0  0  0  0  0  0  0  0  0  0  0  0  0  0  0
+          0  0  0  0  0  0  0  0  0  0  0  0  0  0  0  0  0
+          0  0  0  0  0  0  0  0  0  0  0  0  0  0  0  0  0
++         0  0  0  0  0  0  0  0  0  0  0  0  0  0  0  0  0
++         0  0  0  0  0  0  0  0  0  0  0  0  0  0  0  0  0
++         0  0  0  0  0  0  0  0  0  0  0  0  0  0  0  0  0
++         0  0  0  0  0  0  0  0  0  0  0  0  0  0  0  0  0
++         0  0  0  0  0  0  0  0  0  0  0  0  0  0  0  0  0
%c L  cc GPS ccc cccc cccc cccc cccc ccccc ccccc ccccc ccccc
%c cc cc ccc ccc cccc cccc cccc cccc ccccc ccccc ccccc ccccc
%f  0.0000000  0.000000000  0.00000000000  0.000000000000000
%f  0.0000000  0.000000000  0.00000000000  0.000000000000000
%i    0    0    0    0      0      0      0      0         0
%i    0    0    0    0      0      0      0      0         0
/* CCCCCCCCCCCCCCCCCCCCCCCCCCCCCCCCCCCCCCCCCCCCCCCCCCCCCCCCCCCCCCCCCCCCCCCCCCCCC
/* C                             GFZ RSO-ORBIT                                 C
/* C DOI: https://doi.org/10.5880/GFZ_ORBIT/RSO/L65_G_v02                      C
/* C                                                                           C
/* C DORIS        RMS: not applicable                                          C
/* C GNSS-E Code  RMS: not applicable                                          C
/* C GNSS-E Phase RMS: not applicable                                          C
/* C GNSS-G Code  RMS:  49.978 [cm]   Obs.acc.:     14632 Obs.eli.:      1099  C
/* C GNSS-G Phase RMS:   4.614 [mm]   Obs.acc.:     14632 Obs.eli.:      1099  C
/* C SLR          RMS:   2.780 [cm]   Obs.acc.:        55 Obs.eli.:         0  C
/* C                                                                           C
/* CCCCCCCCCCCCCCCCCCCCCCCCCCCCCCCCCCCCCCCCCCCCCCCCCCCCCCCCCCCCCCCCCCCCCCCCCCCCC
*  2023  1 16  1 49 30.00000000
PL65   3778.975003   4179.981225  -3930.252627   5961.247496
VL65 -27392.902234 -33986.082440 -62443.902202 999999.999999
*  2023  1 16  1 50  0.00000000
PL65   3694.506121   4075.924988  -4115.371918   5961.714681
VL65 -28915.492310 -35377.222347 -60957.605992 999999.999999
*  2023  1 16  1 50 30.00000000
PL65   3605.508138   3967.763708  -4295.930997   5962.181819
VL65 -30411.994396 -36722.546596 -59404.046026 999999.999999
*  2023  1 16  1 51  0.00000000
PL65   3512.062088   3855.636879  -4471.730683   5962.648963
VL65 -31880.564529 -38020.702017 -57784.976434 999999.999999
*  2023  1 16  1 51 30.00000000
PL65   3414.254499   3739.687958  -4642.577169   5963.115989
VL65 -33319.387632 -39270.398241 -56102.222625 999999.999999
*  2023  1 16  1 52  0.00000000
PL65   3312.177295   3620.064178  -4808.282225   5963.583086
VL65 -34726.678885 -40470.408754 -54357.677525 999999.999999
*  2023  1 16  1 52 30.00000000
PL65   3205.927712   3496.916355  -4968.663399   5964.050362
VL65 -36100.684477 -41619.571365 -52553.299859 999999.999999
*  2023  1 16  1 53  0.00000000
PL65   3095.608196   3370.398696  -5123.544213   5964.517856
VL65 -37439.683975 -42716.789954 -50691.112925 999999.999999
*  2023  1 16  1 53 30.00000000
PL65   2981.326300   3240.668590  -5272.754350   5964.985286
VL65 -38741.993222 -43761.035942 -48773.200815 999999.999999
*  2023  1 16  1 54  0.00000000
PL65   2863.194574   3107.886417  -5416.129832   5965.452630
VL65 -40005.965542 -44751.347168 -46801.704777 999999.999999
*  2023  1 16  1 54 30.00000000
PL65   2741.330453   2972.215341  -5553.513191   5965.919818
VL65 -41229.993014 -45686.827293 -44778.823030 999999.999999
*  2023  1 16  1 55  0.00000000
PL65   2615.856129   2833.821115  -5684.753637   5966.386955
VL65 -42412.509747 -46566.648428 -42706.809787 999999.999999
*  2023  1 16  1 55 30.00000000
PL65   2486.898427   2692.871868  -5809.707222   5966.854092
VL65 -43551.994672 -47390.053572 -40587.970527 999999.999999
*  2023  1 16  1 56  0.00000000
PL65   2354.588669   2549.537898  -5928.236984   5967.321446
VL65 -44646.972449 -48156.356205 -38424.657119 999999.999999
*  2023  1 16  1 56 30.00000000
PL65   2219.062530   2403.991453  -6040.213085   5967.788788
VL65 -45696.014254 -48864.939202 -36219.265335 999999.999999
*  2023  1 16  1 57  0.00000000
PL65   2080.459902   2256.406533  -6145.512934   5968.256128
VL65 -46697.739318 -49515.254634 -33974.232864 999999.999999
*  2023  1 16  1 57 30.00000000
PL65   1938.924744   2106.958674  -6244.021317   5968.723429
VL65 -47650.816187 -50106.823756 -31692.036771 999999.999999
*  2023  1 16  1 58  0.00000000
PL65   1794.604937   1955.824748  -6335.630505   5969.190663
VL65 -48553.963148 -50639.236963 -29375.191476 999999.999999
*  2023  1 16  1 58 30.00000000
PL65   1647.652128   1803.182751  -6420.240366   5969.657991
VL65 -49405.949360 -51112.154118 -27026.247439 999999.999999
*  2023  1 16  1 59  0.00000000
PL65   1498.221580   1649.211592  -6497.758474   5970.125274
VL65 -50205.597566 -51525.305071 -24647.789315 999999.999999
*  2023  1 16  1 59 30.00000000
PL65   1346.472003   1494.090889  -6568.100202   5970.592504
VL65 -50951.787504 -51878.489804 -22242.432671 999999.999999
*  2023  1 16  2  0  0.00000000
PL65   1192.565376   1338.000752  -6631.188813   5971.059786
VL65 -51643.458356 -52171.577812 -19812.819460 999999.999999
*  2023  1 16  2  0 30.00000000
PL65   1036.666775   1181.121583  -6686.955527   5971.527041
VL65 -52279.608878 -52404.507208 -17361.614354 999999.999999
*  2023  1 16  2  1  0.00000000
PL65    878.944187   1023.633863  -6735.339591   5971.994508
VL65 -52859.297066 -52577.284737 -14891.502404 999999.999999
*  2023  1 16  2  1 30.00000000
PL65    719.568340    865.717954  -6776.288337   5972.462039
VL65 -53381.640249 -52689.985365 -12405.186613 999999.999999
*  2023  1 16  2  2  0.00000000
PL65    558.712516    707.553887  -6809.757227   5972.929459
VL65 -53845.815872 -52742.751797  -9905.386983 999999.999999
*  2023  1 16  2  2 30.00000000
PL65    396.552374    549.321168  -6835.709910   5973.396887
VL65 -54251.064330 -52735.795696  -7394.838652 999999.999999
*  2023  1 16  2  3  0.00000000
PL65    233.265753    391.198558  -6854.118255   5973.864404
VL65 -54596.691428 -52669.397461  -4876.286924 999999.999999
*  2023  1 16  2  3 30.00000000
PL65     69.032476    233.363880  -6864.962379   5974.331765
VL65 -54882.069538 -52543.904160  -2352.482799 999999.999999
*  2023  1 16  2  4  0.00000000
PL65    -95.965852     75.993818  -6868.230651   5974.799166
VL65 -55106.637313 -52359.727470    173.821709 999999.999999
*  2023  1 16  2  4 30.00000000
PL65   -261.546037    -80.736272  -6863.919700   5975.266333
VL65 -55269.896818 -52117.340232   2699.874816 999999.999999
*  2023  1 16  2  5  0.00000000
PL65   -427.523488   -236.652545  -6852.034410   5975.733621
VL65 -55371.414622 -51817.276439   5222.921006 999999.999999
*  2023  1 16  2  5 30.00000000
PL65   -593.712418   -391.582851  -6832.587937   5976.200849
VL65 -55410.827670 -51460.135160   7740.204217 999999.999999
*  2023  1 16  2  6  0.00000000
PL65   -759.926055   -545.356939  -6805.601695   5976.668166
VL65 -55387.843896 -51046.579520  10248.977252 999999.999999
*  2023  1 16  2  6 30.00000000
PL65   -925.976858   -697.806635  -6771.105319   5977.135446
VL65 -55302.239048 -50577.332565  12746.504760 999999.999999
*  2023  1 16  2  7  0.00000000
PL65  -1091.676710   -848.766023  -6729.136637   5977.602687
VL65 -55153.856607 -50053.175694  15230.062332 999999.999999
*  2023  1 16  2  7 30.00000000
PL65  -1256.837131   -998.071617  -6679.741628   5978.069955
VL65 -54942.610035 -49474.948388  17696.937303 999999.999999
*  2023  1 16  2  8  0.00000000
PL65  -1421.269490  -1145.562538  -6622.974394   5978.537116
VL65 -54668.485536 -48843.548375  20144.431926 999999.999999
*  2023  1 16  2  8 30.00000000
PL65  -1584.785223  -1291.080688  -6558.897095   5979.004599
VL65 -54331.542486 -48159.931082  22569.869373 999999.999999
*  2023  1 16  2  9  0.00000000
PL65  -1747.196053  -1434.470916  -6487.579887   5979.471892
VL65 -53931.910629 -47425.107103  24970.598012 999999.999999
*  2023  1 16  2  9 30.00000000
PL65  -1908.314194  -1575.581186  -6409.100843   5979.938696
VL65 -53469.788626 -46640.139832  27343.991460 999999.999999
*  2023  1 16  2 10  0.00000000
PL65  -2067.952562  -1714.262726  -6323.545875   5980.405718
VL65 -52945.445660 -45806.144842  29687.448975 999999.999999
*  2023  1 16  2 10 30.00000000
PL65  -2225.924986  -1850.370193  -6231.008658   5980.872924
VL65 -52359.222978 -44924.289574  31998.398306 999999.999999
*  2023  1 16  2 11  0.00000000
PL65  -2382.046431  -1983.761820  -6131.590535   5981.340106
VL65 -51711.534207 -43995.792273  34274.299278 999999.999999
*  2023  1 16  2 11 30.00000000
PL65  -2536.133209  -2114.299570  -6025.400417   5981.807343
VL65 -51002.865144 -43021.920219  36512.646985 999999.999999
*  2023  1 16  2 12  0.00000000
PL65  -2688.003197  -2241.849279  -5912.554675   5982.274497
VL65 -50233.773660 -42003.987827  38710.974246 999999.999999
*  2023  1 16  2 12 30.00000000
PL65  -2837.476056  -2366.280795  -5793.177021   5982.741985
VL65 -49404.889914 -40943.355240  40866.854003 999999.999999
*  2023  1 16  2 13  0.00000000
PL65  -2984.373445  -2487.468113  -5667.398384   5983.209354
VL65 -48516.916472 -39841.426929  42977.902078 999999.999999
*  2023  1 16  2 13 30.00000000
PL65  -3128.519238  -2605.289507  -5535.356780   5983.676598
VL65 -47570.628443 -38699.650339  45041.780050 999999.999999
*  2023  1 16  2 14  0.00000000
PL65  -3269.739746  -2719.627655  -5397.197165   5984.144028
VL65 -46566.873059 -37519.514662  47056.199023 999999.999999
*  2023  1 16  2 14 30.00000000
PL65  -3407.863924  -2830.369764  -5253.071282   5984.611286
VL65 -45506.567822 -36302.548575  49018.923295 999999.999999
EOF
